GLOBALSTAR M024 [-]     
1 25883U 99043A   24070.94564112  .00000020  00000+0  29916-2 0  9996
2 25883  52.0061 345.8471 0002084  63.2220  19.3545 11.10157240 63416
GLOBALSTAR M054 [-]     
1 25885U 99043C   24070.85499866 -.00000060  00000+0  27781-3 0  9995
2 25885  52.0111 255.9612 0005560  98.5743   9.2646 11.39206364 66242
GLOBALSTAR M053 [-]     
1 25886U 99043D   24070.55125103 -.00000078  00000+0 -28386-3 0  9995
2 25886  51.9966 178.0613 0003121  29.0682 344.4985 11.27654031 67142
GLOBALSTAR M058 [-]     
1 25907U 99049A   24070.80248369 -.00000058  00000+0  34968-3 0  9993
2 25907  51.9922 266.5096 0003208  99.7592 260.3605 11.93178850486228
GLOBALSTAR M050 [-]     
1 25908U 99049B   24070.95707605 -.00000031  00000+0  64084-3 0  9996
2 25908  52.0001 308.3808 0008773 184.1215 189.7168 12.07430138 92236
GLOBALSTAR M033 [-]     
1 25909U 99049C   24070.82089689 -.00000112  00000+0 -19832-3 0  9990
2 25909  51.9893 212.5907 0012006  42.0891 318.0876 12.20269038479175
GLOBALSTAR M055 [-]     
1 25910U 99049D   24070.83843365 -.00000094  00000+0  31768-5 0  9994
2 25910  51.9997 245.8371 0006185 245.5468 114.4739 12.29396740111299
